STARLINK-1583           
1 46064U 20055AP  26068.49754280  .00070613  00000+0  23857-2 0  9996
2 46064  53.1591 114.7608 0001092  94.0990 266.0136 15.30036564309038
STARLINK-31630          
1 59271U 24050T   26068.56880718 -.00002063  00000+0 -57526-4 0  9991
2 59271  53.1600 168.5079 0001409  92.3163 267.7999 15.30200807110710
